CCSDS_OMM_VERS = 2.0
CREATION_DATE  = 
ORIGINATOR     = 

OBJECT_NAME    = ATLAS CENTAUR 2
OBJECT_ID      = 1963-047A
CENTER_NAME    = EARTH
REF_FRAME      = TEME
TIME_SYSTEM    = UTC
MEAN_ELEMENT_THEORY = SGP/SGP4

EPOCH          = 2025-11-03T23:16:48.241920
MEAN_MOTION    = 14.11375583
ECCENTRICITY   = .0550212
INCLINATION    = 30.3515
RA_OF_ASC_NODE = 177.9554
ARG_OF_PERICENTER = 52.7564
MEAN_ANOMALY   = 312.1951

EPHEMERIS_TYPE = 0
CLASSIFICATION_TYPE = U
NORAD_CAT_ID   = 694
ELEMENT_SET_NO = 999
REV_AT_EPOCH   = 11384
BSTAR          = .48839E-3
MEAN_MOTION_DOT = .4034E-4
MEAN_MOTION_DDOT = 0

CCSDS_OMM_VERS = 2.0
CREATION_DATE  = 
ORIGINATOR     = 

OBJECT_NAME    = THOR AGENA D R/B
OBJECT_ID      = 1964-002A
CENTER_NAME    = EARTH
REF_FRAME      = TEME
TIME_SYSTEM    = UTC
MEAN_ELEMENT_THEORY = SGP/SGP4

EPOCH          = 2025-11-04T11:37:33.622752
MEAN_MOTION    = 14.33925769
ECCENTRICITY   = .00319185
INCLINATION    = 99.1224
RA_OF_ASC_NODE = 310.0328
ARG_OF_PERICENTER = 262.9284
MEAN_ANOMALY   = 96.8269

EPHEMERIS_TYPE = 0
CLASSIFICATION_TYPE = U
NORAD_CAT_ID   = 733
ELEMENT_SET_NO = 999
REV_AT_EPOCH   = 22035
BSTAR          = .1276894E-3
MEAN_MOTION_DOT = .309E-5
MEAN_MOTION_DDOT = 0

CCSDS_OMM_VERS = 2.0
CREATION_DATE  = 
ORIGINATOR     = 

OBJECT_NAME    = SL-3 R/B
OBJECT_ID      = 1964-053B
CENTER_NAME    = EARTH
REF_FRAME      = TEME
TIME_SYSTEM    = UTC
MEAN_ELEMENT_THEORY = SGP/SGP4

EPOCH          = 2025-11-04T12:28:33.633408
MEAN_MOTION    = 14.61212938
ECCENTRICITY   = .00702224
INCLINATION    = 65.0776
RA_OF_ASC_NODE = 338.1618
ARG_OF_PERICENTER = 333.3673
MEAN_ANOMALY   = 26.3826

EPHEMERIS_TYPE = 0
CLASSIFICATION_TYPE = U
NORAD_CAT_ID   = 877
ELEMENT_SET_NO = 999
REV_AT_EPOCH   = 24850
BSTAR          = .9606575E-4
MEAN_MOTION_DOT = .367E-5
MEAN_MOTION_DDOT = 0

CCSDS_OMM_VERS = 2.0
CREATION_DATE  = 
ORIGINATOR     = 

OBJECT_NAME    = SL-8 R/B
OBJECT_ID      = 1967-045B
CENTER_NAME    = EARTH
REF_FRAME      = TEME
TIME_SYSTEM    = UTC
MEAN_ELEMENT_THEORY = SGP/SGP4

EPOCH          = 2025-11-04T04:11:42.213696
MEAN_MOTION    = 14.45491291
ECCENTRICITY   = .0065605
INCLINATION    = 74.0112
RA_OF_ASC_NODE = 222.4693
ARG_OF_PERICENTER = 260.2153
MEAN_ANOMALY   = 99.1592

EPHEMERIS_TYPE = 0
CLASSIFICATION_TYPE = U
NORAD_CAT_ID   = 2802
ELEMENT_SET_NO = 999
REV_AT_EPOCH   = 7088
BSTAR          = .12318E-3
MEAN_MOTION_DOT = .417E-5
MEAN_MOTION_DDOT = 0

CCSDS_OMM_VERS = 2.0
CREATION_DATE  = 
ORIGINATOR     = 

OBJECT_NAME    = SL-8 R/B
OBJECT_ID      = 1968-040B
CENTER_NAME    = EARTH
REF_FRAME      = TEME
TIME_SYSTEM    = UTC
MEAN_ELEMENT_THEORY = SGP/SGP4

EPOCH          = 2025-11-04T14:48:12.595680
MEAN_MOTION    = 15.02143609
ECCENTRICITY   = .0023385
INCLINATION    = 74.0322
RA_OF_ASC_NODE = 209.0413
ARG_OF_PERICENTER = 61.9965
MEAN_ANOMALY   = 298.3585

EPHEMERIS_TYPE = 0
CLASSIFICATION_TYPE = U
NORAD_CAT_ID   = 3230
ELEMENT_SET_NO = 999
REV_AT_EPOCH   = 7122
BSTAR          = .32222973E-3
MEAN_MOTION_DOT = .4224E-4
MEAN_MOTION_DDOT = 0

CCSDS_OMM_VERS = 2.0
CREATION_DATE  = 
ORIGINATOR     = 

OBJECT_NAME    = OAO 2
OBJECT_ID      = 1968-110A
CENTER_NAME    = EARTH
REF_FRAME      = TEME
TIME_SYSTEM    = UTC
MEAN_ELEMENT_THEORY = SGP/SGP4

EPOCH          = 2025-11-04T03:39:48.562560
MEAN_MOTION    = 14.47207147
ECCENTRICITY   = .0006221
INCLINATION    = 34.9932
RA_OF_ASC_NODE = 246.0751
ARG_OF_PERICENTER = 269.6286
MEAN_ANOMALY   = 90.3692

EPHEMERIS_TYPE = 0
CLASSIFICATION_TYPE = U
NORAD_CAT_ID   = 3597
ELEMENT_SET_NO = 999
REV_AT_EPOCH   = 90
BSTAR          = .90771694E-4
MEAN_MOTION_DOT = .317E-5
MEAN_MOTION_DDOT = 0

CCSDS_OMM_VERS = 2.0
CREATION_DATE  = 
ORIGINATOR     = 

OBJECT_NAME    = ISIS 1
OBJECT_ID      = 1969-009A
CENTER_NAME    = EARTH
REF_FRAME      = TEME
TIME_SYSTEM    = UTC
MEAN_ELEMENT_THEORY = SGP/SGP4

EPOCH          = 2025-11-04T13:26:50.105760
MEAN_MOTION    = 11.30332483
ECCENTRICITY   = .17078104
INCLINATION    = 88.4531
RA_OF_ASC_NODE = 168.9694
ARG_OF_PERICENTER = 341.8418
MEAN_ANOMALY   = 12.8143

EPHEMERIS_TYPE = 0
CLASSIFICATION_TYPE = U
NORAD_CAT_ID   = 3669
ELEMENT_SET_NO = 999
REV_AT_EPOCH   = 33439
BSTAR          = .14058156E-3
MEAN_MOTION_DOT = .2E-5
MEAN_MOTION_DDOT = 0

CCSDS_OMM_VERS = 2.0
CREATION_DATE  = 
ORIGINATOR     = 

OBJECT_NAME    = SERT 2
OBJECT_ID      = 1970-009A
CENTER_NAME    = EARTH
REF_FRAME      = TEME
TIME_SYSTEM    = UTC
MEAN_ELEMENT_THEORY = SGP/SGP4

EPOCH          = 2025-11-04T10:50:16.843776
MEAN_MOTION    = 13.58710607
ECCENTRICITY   = .00055124
INCLINATION    = 99.2582
RA_OF_ASC_NODE = 253.4999
ARG_OF_PERICENTER = 118.6583
MEAN_ANOMALY   = 350.0730

EPHEMERIS_TYPE = 0
CLASSIFICATION_TYPE = U
NORAD_CAT_ID   = 4327
ELEMENT_SET_NO = 999
REV_AT_EPOCH   = 76288
BSTAR          = .52331748E-4
MEAN_MOTION_DOT = -.3E-7
MEAN_MOTION_DDOT = 0

CCSDS_OMM_VERS = 2.0
CREATION_DATE  = 
ORIGINATOR     = 

OBJECT_NAME    = SL-3 R/B
OBJECT_ID      = 1971-028B
CENTER_NAME    = EARTH
REF_FRAME      = TEME
TIME_SYSTEM    = UTC
MEAN_ELEMENT_THEORY = SGP/SGP4

EPOCH          = 2025-11-04T15:54:41.569632
MEAN_MOTION    = 15.51733574
ECCENTRICITY   = .00227713
INCLINATION    = 81.2418
RA_OF_ASC_NODE = 205.2899
ARG_OF_PERICENTER = 19.0071
MEAN_ANOMALY   = 341.2021

EPHEMERIS_TYPE = 0
CLASSIFICATION_TYPE = U
NORAD_CAT_ID   = 5118
ELEMENT_SET_NO = 999
REV_AT_EPOCH   = 96922
BSTAR          = .47382875E-3
MEAN_MOTION_DOT = .28629E-3
MEAN_MOTION_DDOT = 0

CCSDS_OMM_VERS = 2.0
CREATION_DATE  = 
ORIGINATOR     = 

OBJECT_NAME    = ASTEX 1
OBJECT_ID      = 1971-089A
CENTER_NAME    = EARTH
REF_FRAME      = TEME
TIME_SYSTEM    = UTC
MEAN_ELEMENT_THEORY = SGP/SGP4

EPOCH          = 2025-11-04T11:44:38.968224
MEAN_MOTION    = 14.50567282
ECCENTRICITY   = .00169906
INCLINATION    = 92.7118
RA_OF_ASC_NODE = 111.2503
ARG_OF_PERICENTER = 141.2242
MEAN_ANOMALY   = 219.0187

EPHEMERIS_TYPE = 0
CLASSIFICATION_TYPE = U
NORAD_CAT_ID   = 5560
ELEMENT_SET_NO = 999
REV_AT_EPOCH   = 84415
BSTAR          = .17490023E-3
MEAN_MOTION_DOT = .685E-5
MEAN_MOTION_DDOT = 0

CCSDS_OMM_VERS = 2.0
CREATION_DATE  = 
ORIGINATOR     = 

OBJECT_NAME    = SL-8 R/B
OBJECT_ID      = 1971-119B
CENTER_NAME    = EARTH
REF_FRAME      = TEME
TIME_SYSTEM    = UTC
MEAN_ELEMENT_THEORY = SGP/SGP4

EPOCH          = 2025-11-04T10:06:25.781472
MEAN_MOTION    = 14.34810965
ECCENTRICITY   = .0561348
INCLINATION    = 73.8895
RA_OF_ASC_NODE = 49.3349
ARG_OF_PERICENTER = 41.4297
MEAN_ANOMALY   = 322.8028

EPHEMERIS_TYPE = 0
CLASSIFICATION_TYPE = U
NORAD_CAT_ID   = 5730
ELEMENT_SET_NO = 999
REV_AT_EPOCH   = 63750
BSTAR          = .31338089E-3
MEAN_MOTION_DOT = .5867E-4
MEAN_MOTION_DDOT = 0

CCSDS_OMM_VERS = 2.0
CREATION_DATE  = 
ORIGINATOR     = 

OBJECT_NAME    = OAO 3 (COPERNICUS)
OBJECT_ID      = 1972-065A
CENTER_NAME    = EARTH
REF_FRAME      = TEME
TIME_SYSTEM    = UTC
MEAN_ELEMENT_THEORY = SGP/SGP4

EPOCH          = 2025-11-04T16:06:15.244128
MEAN_MOTION    = 14.59854167
ECCENTRICITY   = .00071039
INCLINATION    = 35.0061
RA_OF_ASC_NODE = 289.5210
ARG_OF_PERICENTER = 221.5260
MEAN_ANOMALY   = 304.9688

EPHEMERIS_TYPE = 0
CLASSIFICATION_TYPE = U
NORAD_CAT_ID   = 6153
ELEMENT_SET_NO = 999
REV_AT_EPOCH   = 82791
BSTAR          = .10065258E-3
MEAN_MOTION_DOT = .468E-5
MEAN_MOTION_DDOT = 0

